COSMOS 2529 (757)       
1 43687U 18086A   26113.27787794 -.00000007  00000+0  00000+0 0  9991
2 43687  64.2929 194.4473 0010094 254.9023 105.0366  2.13101977 58110
COSMOS 2534 (758)       
1 44299U 19030A   26116.85783661 -.00000008  00000+0  00000+0 0  9998
2 44299  64.3659 194.3442 0011902 276.6349  84.2499  2.13102216 53833
COSMOS 2544 (759)       
1 44850U 19088A   26112.65642860  .00000025  00000+0  00000+0 0  9991
2 44850  65.5361  75.5832 0015132 261.9687  97.8399  2.13101758 49534
COSMOS 2545 (760)       
1 45358U 20018A   26116.13664067 -.00000027  00000+0  00000+0 0  9993
2 45358  64.3864 314.2486 0007174 238.9664 120.9888  2.13102374 47553
COSMOS 2547 (705K)      
1 46805U 20075A   26116.32568127 -.00000012  00000+0  00000+0 0  9999
2 46805  64.5968 194.2055 0008364 236.7383 123.2291  2.13100274 42806
COSMOS 2557 (706K)      
1 52984U 22075A   26116.95964515 -.00000033  00000+0  00000+0 0  9999
2 52984  64.3278 316.2899 0010196 281.3644  78.5490  2.13101838 29622
COSMOS 2559 (707K)      
1 54031U 22130A   26115.84062453 -.00000029  00000+0  00000+0 0  9998
2 54031  64.3018 316.4145 0011364 176.1051 183.9320  2.13101453 27574
COSMOS 2564 (761)       
1 54377U 22161A   26117.09180574 -.00000005  00000+0  00000+0 0  9993
2 54377  64.7390 194.4071 0011053 219.7400 140.2284  2.13101958 26544
COSMOS 2569 (703K)      
1 57517U 23114A   26116.63503521  .00000002  00000+0  00000+0 0  9997
2 57517  65.2747  74.3578 0012405 295.3839  64.4650  2.13103767 21168
COSMOS 2584 (704K)      
1 63130U 25042A   26116.99118921 -.00000002  00000+0  00000+0 0  9993
2 63130  65.0570  74.5414 0006740 237.4306 122.4806  2.13103661  8953
COSMOS 2596 (708K)      
1 65590U 25206B   26116.13860336 -.00000029  00000+0  00000+0 0  9996
2 65590  64.6645 316.7970 0011576 316.9570 225.8124  2.13100475  4801
